start=new Date('%Y-%m-27T00:00:00.000Z').valueOf();
sats=[{"OBJECT_ID":"2021-044U","PERIOD":"95.592","APOAPSIS":"548.096","GP_ID":"183215384","MEAN_MOTION_DDOT":"0.0000000000000","MEAN_ANOMALY":"240.0686","COUNTRY_CODE":"US","RA_OF_ASC_NODE":"17.3021","TLE_LINE1":"1 48656U 21044U   21233.87276723 -.00001114  00000-0 -55880-4 0  9992","CLASSIFICATION_TYPE":"U","TIME_SYSTEM":"UTC","MEAN_MOTION":"15.06396909","OBJECT_NAME":"STARLINK-2701","INCLINATION":"53.0565","PERIAPSIS":"546.350","ELEMENT_SET_NO":"999","NORAD_CAT_ID":"48656","SEMIMAJOR_AXIS":"6925.358","SITE":"AFETR","LAUNCH_DATE":"2021-05-26","ECCENTRICITY":"0.00012600","ARG_OF_PERICENTER":"120.0428","TLE_LINE2":"2 48656  53.0565  17.3021 0001260 120.0428 240.0686 15.06396909 13384","DECAY_DATE":null,"CENTER_NAME":"EARTH","FILE":"3101032","MEAN_ELEMENT_THEORY":"SGP4","RCS_SIZE":"LARGE","REV_AT_EPOCH":"1338","MEAN_MOTION_DOT":"-0.00001114","EPHEMERIS_TYPE":"0","OBJECT_TYPE":"PAYLOAD","EPOCH":"2021-08-21T20:56:47.088672","BSTAR":"-0.00005588000000","REF_FRAME":"TEME"},{"OBJECT_NAME":"STARLINK-2734","MEAN_MOTION":"15.06405247","PERIAPSIS":"546.344","INCLINATION":"53.0566","TIME_SYSTEM":"UTC","CLASSIFICATION_TYPE":"U","COUNTRY_CODE":"US","MEAN_MOTION_DDOT":"0.0000000000000","MEAN_ANOMALY":"232.0176","TLE_LINE1":"1 48657U 21044V   21233.86908879  .00000576  00000-0  57519-4 0  9996","RA_OF_ASC_NODE":"17.3190","GP_ID":"183215542","PERIOD":"95.592","APOAPSIS":"548.051","OBJECT_ID":"2021-044V","EPOCH":"2021-08-21T20:51:29.271456","OBJECT_TYPE":"PAYLOAD","EPHEMERIS_TYPE":"0","REF_FRAME":"TEME","BSTAR":"0.00005751900000","FILE":"3101032","CENTER_NAME":"EARTH","MEAN_MOTION_DOT":"0.00000576","REV_AT_EPOCH":"1338","RCS_SIZE":"LARGE","MEAN_ELEMENT_THEORY":"SGP4","TLE_LINE2":"2 48657  53.0566  17.3190 0001232 128.0924 232.0176 15.06405247 13382","ARG_OF_PERICENTER":"128.0924","DECAY_DATE":null,"ECCENTRICITY":"0.00012320","LAUNCH_DATE":"2021-05-26","SITE":"AFETR","SEMIMAJOR_AXIS":"6925.332","NORAD_CAT_ID":"48657","ELEMENT_SET_NO":"999"},{"DECAY_DATE":null,"ARG_OF_PERICENTER":"108.8749","TLE_LINE2":"2 48658  53.0575  17.3398 0001364 108.8749 251.2388 15.06393885 13382","ELEMENT_SET_NO":"999","NORAD_CAT_ID":"48658","SEMIMAJOR_AXIS":"6925.367","SITE":"AFETR","ECCENTRICITY":"0.00013640","LAUNCH_DATE":"2021-05-26","BSTAR":"0.00007770600000","REF_FRAME":"TEME","EPHEMERIS_TYPE":"0","OBJECT_TYPE":"PAYLOAD","EPOCH":"2021-08-21T20:46:10.477056","MEAN_ELEMENT_THEORY":"SGP4","RCS_SIZE":"LARGE","REV_AT_EPOCH":"1338","MEAN_MOTION_DOT":"0.00000876","CENTER_NAME":"EARTH","FILE":"3101032","RA_OF_ASC_NODE":"17.3398","TLE_LINE1":"1 48658U 21044W   21233.86539904  .00000876  00000-0  77706-4 0  9999","MEAN_MOTION_DDOT":"0.0000000000000","MEAN_ANOMALY":"251.2388","COUNTRY_CODE":"US","OBJECT_ID":"2021-044W","PERIOD":"95.593","APOAPSIS":"548.177","GP_ID":"183215653","INCLINATION":"53.0575","PERIAPSIS":"546.288","MEAN_MOTION":"15.06393885","OBJECT_NAME":"STARLINK-2647","CLASSIFICATION_TYPE":"U","TIME_SYSTEM":"UTC"},{"CLASSIFICATION_TYPE":"U","TIME_SYSTEM":"UTC","MEAN_MOTION":"15.06398500","OBJECT_NAME":"STARLINK-2717","INCLINATION":"53.0571","PERIAPSIS":"546.343","OBJECT_ID":"2021-044X","APOAPSIS":"548.093","PERIOD":"95.592","GP_ID":"183215825","MEAN_MOTION_DDOT":"0.0000000000000","MEAN_ANOMALY":"233.3113","COUNTRY_CODE":"US","RA_OF_ASC_NODE":"17.3537","TLE_LINE1":"1 48659U 21044X   21233.86171263  .00000839  00000-0  75231-4 0  9990","CENTER_NAME":"EARTH","FILE":"3101032","MEAN_ELEMENT_THEORY":"SGP4","RCS_SIZE":"LARGE","REV_AT_EPOCH":"1338","MEAN_MOTION_DOT":"0.00000839","EPHEMERIS_TYPE":"0","OBJECT_TYPE":"PAYLOAD","EPOCH":"2021-08-21T20:40:51.971232","BSTAR":"0.00007523100000","REF_FRAME":"TEME","ELEMENT_SET_NO":"999","SEMIMAJOR_AXIS":"6925.353","NORAD_CAT_ID":"48659","SITE":"AFETR","ECCENTRICITY":"0.00012630","LAUNCH_DATE":"2021-05-26","ARG_OF_PERICENTER":"126.7992","TLE_LINE2":"2 48659  53.0571  17.3537 0001263 126.7992 233.3113 15.06398500 13387","DECAY_DATE":null},{"EPOCH":"2021-08-21T20:35:32.493408","OBJECT_TYPE":"PAYLOAD","EPHEMERIS_TYPE":"0","REF_FRAME":"TEME","BSTAR":"0.00006930000000","FILE":"3101032","CENTER_NAME":"EARTH","MEAN_MOTION_DOT":"0.00000751","REV_AT_EPOCH":"1338","RCS_SIZE":"LARGE","MEAN_ELEMENT_THEORY":"SGP4","TLE_LINE2":"2 48660  53.0567  17.3691 0001281 118.3988 241.7131 15.06403883 13381","ARG_OF_PERICENTER":"118.3988","DECAY_DATE":null,"ECCENTRICITY":"0.00012810","LAUNCH_DATE":"2021-05-26","SITE":"AFETR","NORAD_CAT_ID":"48660","SEMIMAJOR_AXIS":"6925.337","ELEMENT_SET_NO":"999","OBJECT_NAME":"STARLINK-2688","MEAN_MOTION":"15.06403883","PERIAPSIS":"546.315","INCLINATION":"53.0567","TIME_SYSTEM":"UTC","CLASSIFICATION_TYPE":"U","COUNTRY_CODE":"US","MEAN_ANOMALY":"241.7131","MEAN_MOTION_DDOT":"0.0000000000000","TLE_LINE1":"1 48660U 21044Y   21233.85801497  .00000751  00000-0  69300-4 0  9993","RA_OF_ASC_NODE":"17.3691","GP_ID":"183215739","PERIOD":"95.592","APOAPSIS":"548.089","OBJECT_ID":"2021-044Y"},{"SITE":"AFETR","LAUNCH_DATE":"2021-05-26","ECCENTRICITY":"0.00013850","ELEMENT_SET_NO":"999","SEMIMAJOR_AXIS":"6925.377","NORAD_CAT_ID":"48661","ARG_OF_PERICENTER":"95.4146","TLE_LINE2":"2 48661  53.0551   7.1034 0001385  95.4146 218.0471 15.06390787  3593","DECAY_DATE":null,"FILE":"3101032","CENTER_NAME":"EARTH","REV_AT_EPOCH":"359","MEAN_MOTION_DOT":"-0.00002685","MEAN_ELEMENT_THEORY":"SGP4","RCS_SIZE":"LARGE","OBJECT_TYPE":"PAYLOAD","EPOCH":"2021-08-21T22:00:01.999584","EPHEMERIS_TYPE":"0","REF_FRAME":"TEME","BSTAR":"-0.00016148000000","APOAPSIS":"548.201","PERIOD":"95.593","GP_ID":"183215898","OBJECT_ID":"2021-044Z","COUNTRY_CODE":"US","MEAN_ANOMALY":"218.0471","MEAN_MOTION_DDOT":"0.0000000000000","TLE_LINE1":"1 48661U 21044Z   21233.91668981 -.00002685  00000-0 -16148-3 0  9991","RA_OF_ASC_NODE":"7.1034","TIME_SYSTEM":"UTC","CLASSIFICATION_TYPE":"U","OBJECT_NAME":"STARLINK-2708","MEAN_MOTION":"15.06390787","INCLINATION":"53.0551","PERIAPSIS":"546.283"},{"LAUNCH_DATE":"2021-05-26","ECCENTRICITY":"0.00012720","SITE":"AFETR","NORAD_CAT_ID":"48662","SEMIMAJOR_AXIS":"6925.267","ELEMENT_SET_NO":"999","TLE_LINE2":"2 48662  53.0547   7.1051 0001272  96.2864 237.1582 15.06426626  3596","ARG_OF_PERICENTER":"96.2864","DECAY_DATE":null,"FILE":"3101032","CENTER_NAME":"EARTH","MEAN_MOTION_DOT":"-0.00044113","REV_AT_EPOCH":"359","RCS_SIZE":"LARGE","MEAN_ELEMENT_THEORY":"SGP4","EPOCH":"2021-08-21T22:00:01.999584","OBJECT_TYPE":"PAYLOAD","EPHEMERIS_TYPE":"0","REF_FRAME":"TEME","BSTAR":"-0.00295890000000","GP_ID":"183215300","PERIOD":"95.590","APOAPSIS":"548.013","OBJECT_ID":"2021-044AA","COUNTRY_CODE":"US","MEAN_MOTION_DDOT":"0.0000000000000","MEAN_ANOMALY":"237.1582","TLE_LINE1":"1 48662U 21044AA  21233.91668981 -.00044113  00000-0 -29589-2 0  9996","RA_OF_ASC_NODE":"7.1051","TIME_SYSTEM":"UTC","CLASSIFICATION_TYPE":"U","OBJECT_NAME":"STARLINK-2726","MEAN_MOTION":"15.06426626","PERIAPSIS":"546.251","INCLINATION":"53.0547"},{"BSTAR":"-0.00299710000000","REF_FRAME":"TEME","EPHEMERIS_TYPE":"0","EPOCH":"2021-08-21T22:00:01.999584","OBJECT_TYPE":"PAYLOAD","RCS_SIZE":"LARGE","MEAN_ELEMENT_THEORY":"SGP4","MEAN_MOTION_DOT":"-0.00044670","REV_AT_EPOCH":"360","CENTER_NAME":"EARTH","FILE":"3101032","DECAY_DATE":null,"TLE_LINE2":"2 48663  53.0535   7.1025 0001245  97.2817 256.1778 15.06421765  3603","ARG_OF_PERICENTER":"97.2817","NORAD_CAT_ID":"48663","SEMIMAJOR_AXIS":"6925.282","ELEMENT_SET_NO":"999","ECCENTRICITY":"0.00012450","LAUNCH_DATE":"2021-05-26","SITE":"AFETR","PERIAPSIS":"546.285","INCLINATION":"53.0535","MEAN_MOTION":"15.06421765","OBJECT_NAME":"STARLINK-2667","CLASSIFICATION_TYPE":"U","TIME_SYSTEM":"UTC","RA_OF_ASC_NODE":"7.1025","TLE_LINE1":"1 48663U 21044AB  21233.91668981 -.00044670  00000-0 -29971-2 0  9990","MEAN_MOTION_DDOT":"0.0000000000000","MEAN_ANOMALY":"256.1778","COUNTRY_CODE":"US","OBJECT_ID":"2021-044AB","GP_ID":"183215471","APOAPSIS":"548.009","PERIOD":"95.591"},{"CLASSIFICATION_TYPE":"U","TIME_SYSTEM":"UTC","PERIAPSIS":"546.180","INCLINATION":"53.0542","MEAN_MOTION":"15.06426475","OBJECT_NAME":"STARLINK-2709","OBJECT_ID":"2021-044AC","GP_ID":"183215385","PERIOD":"95.590","APOAPSIS":"548.085","RA_OF_ASC_NODE":"7.1046","TLE_LINE1":"1 48664U 21044AC  21233.91668981 -.00042883  00000-0 -28753-2 0  9992","MEAN_MOTION_DDOT":"0.0000000000000","MEAN_ANOMALY":"284.1816","COUNTRY_CODE":"US","RCS_SIZE":"LARGE","MEAN_ELEMENT_THEORY":"SGP4","MEAN_MOTION_DOT":"-0.00042883","REV_AT_EPOCH":"360","CENTER_NAME":"EARTH","FILE":"3101032","BSTAR":"-0.00287530000000","REF_FRAME":"TEME","EPHEMERIS_TYPE":"0","EPOCH":"2021-08-21T22:00:01.999584","OBJECT_TYPE":"PAYLOAD","SEMIMAJOR_AXIS":"6925.267","NORAD_CAT_ID":"48664","ELEMENT_SET_NO":"999","LAUNCH_DATE":"2021-05-26","ECCENTRICITY":"0.00013750","SITE":"AFETR","DECAY_DATE":null,"TLE_LINE2":"2 48664  53.0542   7.1046 0001375  89.2705 284.1816 15.06426475  3603","ARG_OF_PERICENTER":"89.2705"},{"OBJECT_TYPE":"PAYLOAD","EPOCH":"2021-08-21T22:00:01.999584","EPHEMERIS_TYPE":"0","REF_FRAME":"TEME","BSTAR":"-0.00228500000000","FILE":"3101032","CENTER_NAME":"EARTH","REV_AT_EPOCH":"359","MEAN_MOTION_DOT":"-0.00034172","MEAN_ELEMENT_THEORY":"SGP4","RCS_SIZE":"LARGE","ARG_OF_PERICENTER":"91.1709","TLE_LINE2":"2 48665  53.0544   7.1036 0001190  91.1709 207.4119 15.06420062  3594","DECAY_DATE":null,"SITE":"AFETR","LAUNCH_DATE":"2021-05-26","ECCENTRICITY":"0.00011900","ELEMENT_SET_NO":"999","SEMIMAJOR_AXIS":"6925.287","NORAD_CAT_ID":"48665","OBJECT_NAME":"STARLINK-2653","MEAN_MOTION":"15.06420062","INCLINATION":"53.0544","PERIAPSIS":"546.328","TIME_SYSTEM":"UTC","CLASSIFICATION_TYPE":"U","COUNTRY_CODE":"US","MEAN_MOTION_DDOT":"0.0000000000000","MEAN_ANOMALY":"207.4119","TLE_LINE1":"1 48665U 21044AD  21233.91668981 -.00034172  00000-0 -22850-2 0  9997","RA_OF_ASC_NODE":"7.1036","APOAPSIS":"547.976","PERIOD":"95.591","GP_ID":"183215543","OBJECT_ID":"2021-044AD"}];
